[{"OBJECT_NAME":"STARLINK-1443","OBJECT_ID":"2020-035D","EPOCH":"2026-03-09T23:27:23.665536","MEAN_MOTION":15.25229052,"ECCENTRICITY":0.00031812,"INCLINATION":53.14,"RA_OF_ASC_NODE":63.586,"ARG_OF_PERICENTER":47.856,"MEAN_ANOMALY":312.2708,"EPHEMERIS_TYPE":0,"CLASSIFICATION_TYPE":"U","NORAD_CAT_ID":45660,"ELEMENT_SET_NO":999,"REV_AT_EPOCH":31880,"BSTAR":0.001163622,"MEAN_MOTION_DOT":0.00029398,"MEAN_MOTION_DDOT":0},{"OBJECT_NAME":"COSMOS 249 DEB","OBJECT_ID":"1968-091AU","EPOCH":"2026-03-09T15:21:56.246976","MEAN_MOTION":14.4883057,"ECCENTRICITY":0.0371981,"INCLINATION":61.9727,"RA_OF_ASC_NODE":173.5146,"ARG_OF_PERICENTER":67.41,"MEAN_ANOMALY":296.587,"EPHEMERIS_TYPE":0,"CLASSIFICATION_TYPE":"U","NORAD_CAT_ID":3757,"ELEMENT_SET_NO":999,"REV_AT_EPOCH":81948,"BSTAR":0.0010972,"MEAN_MOTION_DOT":0.00010007,"MEAN_MOTION_DDOT":0}]
